ELYSIUM STAR 2 & LFF    
1 43760U 18099C   24237.91279701  .00091996  00000+0  27117-2 0  9994
2 43760  97.5087 306.2428 0003430  33.3503 326.7955 15.34654201313746
